CCSDS_OMM_VERS = 2.0
CREATION_DATE  = 
ORIGINATOR     = 

OBJECT_NAME    = STARLINK-36503
OBJECT_ID      = 2026-005H
CENTER_NAME    = EARTH
REF_FRAME      = TEME
TIME_SYSTEM    = UTC
MEAN_ELEMENT_THEORY = SGP/SGP4

EPOCH          = 2026-02-10T00:29:30.430176
MEAN_MOTION    = 15.50621528
ECCENTRICITY   = .00017249
INCLINATION    = 43.0013
RA_OF_ASC_NODE = 36.0820
ARG_OF_PERICENTER = 277.8057
MEAN_ANOMALY   = 82.2607

EPHEMERIS_TYPE = 0
CLASSIFICATION_TYPE = U
NORAD_CAT_ID   = 67411
ELEMENT_SET_NO = 999
REV_AT_EPOCH   = 444
BSTAR          = .11899985E-2
MEAN_MOTION_DOT = .70206E-3
MEAN_MOTION_DDOT = 0

CCSDS_OMM_VERS = 2.0
CREATION_DATE  = 
ORIGINATOR     = 

OBJECT_NAME    = STARLINK-36446
OBJECT_ID      = 2026-005J
CENTER_NAME    = EARTH
REF_FRAME      = TEME
TIME_SYSTEM    = UTC
MEAN_ELEMENT_THEORY = SGP/SGP4

EPOCH          = 2026-02-10T06:00:02.000160
MEAN_MOTION    = 15.40675394
ECCENTRICITY   = .00010647
INCLINATION    = 43.0011
RA_OF_ASC_NODE = 35.0982
ARG_OF_PERICENTER = 260.0594
MEAN_ANOMALY   = 155.0356

EPHEMERIS_TYPE = 0
CLASSIFICATION_TYPE = U
NORAD_CAT_ID   = 67412
ELEMENT_SET_NO = 999
REV_AT_EPOCH   = 577
BSTAR          = .57282697E-3
MEAN_MOTION_DOT = .23679E-3
MEAN_MOTION_DDOT = 0

CCSDS_OMM_VERS = 2.0
CREATION_DATE  = 
ORIGINATOR     = 

OBJECT_NAME    = STARLINK-36442
OBJECT_ID      = 2026-005K
CENTER_NAME    = EARTH
REF_FRAME      = TEME
TIME_SYSTEM    = UTC
MEAN_ELEMENT_THEORY = SGP/SGP4

EPOCH          = 2026-02-10T06:00:02.000160
MEAN_MOTION    = 15.40674774
ECCENTRICITY   = .00015625
INCLINATION    = 43.0009
RA_OF_ASC_NODE = 34.9759
ARG_OF_PERICENTER = 261.4978
MEAN_ANOMALY   = 203.3626

EPHEMERIS_TYPE = 0
CLASSIFICATION_TYPE = U
NORAD_CAT_ID   = 67413
ELEMENT_SET_NO = 999
REV_AT_EPOCH   = 577
BSTAR          = .64248828E-3
MEAN_MOTION_DOT = .26606E-3
MEAN_MOTION_DDOT = 0

CCSDS_OMM_VERS = 2.0
CREATION_DATE  = 
ORIGINATOR     = 

OBJECT_NAME    = STARLINK-36506
OBJECT_ID      = 2026-005L
CENTER_NAME    = EARTH
REF_FRAME      = TEME
TIME_SYSTEM    = UTC
MEAN_ELEMENT_THEORY = SGP/SGP4

EPOCH          = 2026-02-09T07:27:41.203584
MEAN_MOTION    = 15.50606894
ECCENTRICITY   = .00016604
INCLINATION    = 43.0011
RA_OF_ASC_NODE = 40.2115
ARG_OF_PERICENTER = 234.2328
MEAN_ANOMALY   = 125.8378

EPHEMERIS_TYPE = 0
CLASSIFICATION_TYPE = U
NORAD_CAT_ID   = 67414
ELEMENT_SET_NO = 999
REV_AT_EPOCH   = 433
BSTAR          = .16611166E-2
MEAN_MOTION_DOT = .9844E-3
MEAN_MOTION_DDOT = 0

CCSDS_OMM_VERS = 2.0
CREATION_DATE  = 
ORIGINATOR     = 

OBJECT_NAME    = STARLINK-36468
OBJECT_ID      = 2026-005M
CENTER_NAME    = EARTH
REF_FRAME      = TEME
TIME_SYSTEM    = UTC
MEAN_ELEMENT_THEORY = SGP/SGP4

EPOCH          = 2026-02-10T06:00:02.000160
MEAN_MOTION    = 15.40664768
ECCENTRICITY   = .00011349
INCLINATION    = 43.0002
RA_OF_ASC_NODE = 34.8547
ARG_OF_PERICENTER = 271.0810
MEAN_ANOMALY   = 243.5515

EPHEMERIS_TYPE = 0
CLASSIFICATION_TYPE = U
NORAD_CAT_ID   = 67415
ELEMENT_SET_NO = 999
REV_AT_EPOCH   = 572
BSTAR          = .79293274E-3
MEAN_MOTION_DOT = .32923E-3
MEAN_MOTION_DDOT = 0

CCSDS_OMM_VERS = 2.0
CREATION_DATE  = 
ORIGINATOR     = 

OBJECT_NAME    = STARLINK-36487
OBJECT_ID      = 2026-005N
CENTER_NAME    = EARTH
REF_FRAME      = TEME
TIME_SYSTEM    = UTC
MEAN_ELEMENT_THEORY = SGP/SGP4

EPOCH          = 2026-02-09T23:45:14.966784
MEAN_MOTION    = 15.40736152
ECCENTRICITY   = .0001149
INCLINATION    = 42.9992
RA_OF_ASC_NODE = 36.7127
ARG_OF_PERICENTER = 236.4783
MEAN_ANOMALY   = 123.5964

EPHEMERIS_TYPE = 0
CLASSIFICATION_TYPE = U
NORAD_CAT_ID   = 67416
ELEMENT_SET_NO = 999
REV_AT_EPOCH   = 443
BSTAR          = .10493E-2
MEAN_MOTION_DOT = .43833E-3
MEAN_MOTION_DDOT = 0

CCSDS_OMM_VERS = 2.0
CREATION_DATE  = 
ORIGINATOR     = 

OBJECT_NAME    = STARLINK-36374
OBJECT_ID      = 2026-005P
CENTER_NAME    = EARTH
REF_FRAME      = TEME
TIME_SYSTEM    = UTC
MEAN_ELEMENT_THEORY = SGP/SGP4

EPOCH          = 2026-02-09T01:15:16.223904
MEAN_MOTION    = 15.50144945
ECCENTRICITY   = .00018583
INCLINATION    = 43.0012
RA_OF_ASC_NODE = 41.7113
ARG_OF_PERICENTER = 267.0150
MEAN_ANOMALY   = 93.0497

EPHEMERIS_TYPE = 0
CLASSIFICATION_TYPE = U
NORAD_CAT_ID   = 67417
ELEMENT_SET_NO = 999
REV_AT_EPOCH   = 429
BSTAR          = -.34143226E-2
MEAN_MOTION_DOT = -.192801E-2
MEAN_MOTION_DDOT = 0

CCSDS_OMM_VERS = 2.0
CREATION_DATE  = 
ORIGINATOR     = 

OBJECT_NAME    = STARLINK-36455
OBJECT_ID      = 2026-005Q
CENTER_NAME    = EARTH
REF_FRAME      = TEME
TIME_SYSTEM    = UTC
MEAN_ELEMENT_THEORY = SGP/SGP4

EPOCH          = 2026-02-10T06:38:18.328992
MEAN_MOTION    = 15.47758146
ECCENTRICITY   = .00024606
INCLINATION    = 43.0005
RA_OF_ASC_NODE = 34.5594
ARG_OF_PERICENTER = 295.8939
MEAN_ANOMALY   = 64.1667

EPHEMERIS_TYPE = 0
CLASSIFICATION_TYPE = U
NORAD_CAT_ID   = 67418
ELEMENT_SET_NO = 999
REV_AT_EPOCH   = 448
BSTAR          = -.47505814E-2
MEAN_MOTION_DOT = -.244899E-2
MEAN_MOTION_DDOT = 0

CCSDS_OMM_VERS = 2.0
CREATION_DATE  = 
ORIGINATOR     = 

OBJECT_NAME    = STARLINK-36424
OBJECT_ID      = 2026-005R
CENTER_NAME    = EARTH
REF_FRAME      = TEME
TIME_SYSTEM    = UTC
MEAN_ELEMENT_THEORY = SGP/SGP4

EPOCH          = 2026-02-10T06:00:02.000160
MEAN_MOTION    = 15.40674967
ECCENTRICITY   = .00014905
INCLINATION    = 43.0010
RA_OF_ASC_NODE = 35.0063
ARG_OF_PERICENTER = 261.6191
MEAN_ANOMALY   = 190.8004

EPHEMERIS_TYPE = 0
CLASSIFICATION_TYPE = U
NORAD_CAT_ID   = 67419
ELEMENT_SET_NO = 999
REV_AT_EPOCH   = 577
BSTAR          = .76771248E-3
MEAN_MOTION_DOT = .31873E-3
MEAN_MOTION_DDOT = 0

CCSDS_OMM_VERS = 2.0
CREATION_DATE  = 
ORIGINATOR     = 

OBJECT_NAME    = STARLINK-35564
OBJECT_ID      = 2026-005S
CENTER_NAME    = EARTH
REF_FRAME      = TEME
TIME_SYSTEM    = UTC
MEAN_ELEMENT_THEORY = SGP/SGP4

EPOCH          = 2026-02-10T00:25:03.643392
MEAN_MOTION    = 15.50651881
ECCENTRICITY   = .00013958
INCLINATION    = 43.0001
RA_OF_ASC_NODE = 36.0531
ARG_OF_PERICENTER = 242.7786
MEAN_ANOMALY   = 117.2932

EPHEMERIS_TYPE = 0
CLASSIFICATION_TYPE = U
NORAD_CAT_ID   = 67420
ELEMENT_SET_NO = 999
REV_AT_EPOCH   = 444
BSTAR          = .21244659E-2
MEAN_MOTION_DOT = .126655E-2
MEAN_MOTION_DDOT = 0

CCSDS_OMM_VERS = 2.0
CREATION_DATE  = 
ORIGINATOR     = 

OBJECT_NAME    = STARLINK-36431
OBJECT_ID      = 2026-005T
CENTER_NAME    = EARTH
REF_FRAME      = TEME
TIME_SYSTEM    = UTC
MEAN_ELEMENT_THEORY = SGP/SGP4

EPOCH          = 2026-02-09T23:48:28.579680
MEAN_MOTION    = 15.40729187
ECCENTRICITY   = .0000928
INCLINATION    = 43.0005
RA_OF_ASC_NODE = 36.7317
ARG_OF_PERICENTER = 271.3695
MEAN_ANOMALY   = 88.7055

EPHEMERIS_TYPE = 0
CLASSIFICATION_TYPE = U
NORAD_CAT_ID   = 67421
ELEMENT_SET_NO = 999
REV_AT_EPOCH   = 443
BSTAR          = .73555E-3
MEAN_MOTION_DOT = .30575E-3
MEAN_MOTION_DDOT = 0

CCSDS_OMM_VERS = 2.0
CREATION_DATE  = 
ORIGINATOR     = 

OBJECT_NAME    = STARLINK-36418
OBJECT_ID      = 2026-005U
CENTER_NAME    = EARTH
REF_FRAME      = TEME
TIME_SYSTEM    = UTC
MEAN_ELEMENT_THEORY = SGP/SGP4

EPOCH          = 2026-02-10T06:00:02.000160
MEAN_MOTION    = 15.40675009
ECCENTRICITY   = .00009113
INCLINATION    = 43.0009
RA_OF_ASC_NODE = 34.9450
ARG_OF_PERICENTER = 261.0681
MEAN_ANOMALY   = 216.2295

EPHEMERIS_TYPE = 0
CLASSIFICATION_TYPE = U
NORAD_CAT_ID   = 67422
ELEMENT_SET_NO = 999
REV_AT_EPOCH   = 572
BSTAR          = .63841403E-3
MEAN_MOTION_DOT = .26435E-3
MEAN_MOTION_DDOT = 0

