STARLINK-36503          
1 67411U 26005H   26041.02049109  .00070206  00000+0  11900-2 0  9997
2 67411  43.0013  36.0820 0001724 277.8057  82.2607 15.50621528  4443
STARLINK-36446          
1 67412U 26005J   26041.25002315  .00023679  00000+0  57283-3 0  9998
2 67412  43.0011  35.0982 0001064 260.0594 155.0356 15.40675394  5773
STARLINK-36442          
1 67413U 26005K   26041.25002315  .00026606  00000+0  64249-3 0  9992
2 67413  43.0009  34.9759 0001562 261.4978 203.3626 15.40674774  5773
STARLINK-36506          
1 67414U 26005L   26040.31089356  .00098440  00000+0  16611-2 0  9993
2 67414  43.0011  40.2115 0001660 234.2328 125.8378 15.50606894  4331
STARLINK-36468          
1 67415U 26005M   26041.25002315  .00032923  00000+0  79293-3 0  9998
2 67415  43.0002  34.8547 0001134 271.0810 243.5515 15.40664768  5729
STARLINK-36487          
1 67416U 26005N   26040.98975656  .00043833  00000+0  10493-2 0  9993
2 67416  42.9992  36.7127 0001149 236.4783 123.5964 15.40736152  4430
STARLINK-36374          
1 67417U 26005P   26040.05227111 -.00192801  00000+0 -34143-2 0  9998
2 67417  43.0012  41.7113 0001858 267.0150  93.0497 15.50144945  4292
STARLINK-36455          
1 67418U 26005Q   26041.27660103 -.00244899  00000+0 -47506-2 0  9998
2 67418  43.0005  34.5594 0002460 295.8939  64.1667 15.47758146  4481
STARLINK-36424          
1 67419U 26005R   26041.25002315  .00031873  00000+0  76771-3 0  9993
2 67419  43.0010  35.0063 0001490 261.6191 190.8004 15.40674967  5774
STARLINK-35564          
1 67420U 26005S   26041.01740328  .00126655  00000+0  21245-2 0  9990
2 67420  43.0001  36.0531 0001395 242.7786 117.2932 15.50651881  4448
STARLINK-36431          
1 67421U 26005T   26040.99199745  .00030575  00000+0  73555-3 0  9995
2 67421  43.0005  36.7317 0000928 271.3695  88.7055 15.40729187  4431
STARLINK-36418          
1 67422U 26005U   26041.25002315  .00026435  00000+0  63841-3 0  9999
2 67422  43.0009  34.9450 0000911 261.0681 216.2295 15.40675009  5727
